0 ARIANE 44LP DEB
1 26812U 88109P   13281.88867529 -.00000104  00000-0  00000+0 0  4353
2 26812 006.7054 281.5507 7003294 038.1965 354.9947 02.21531949121683
0 ARIANE 44LP DEB
1 26812U 88109P   13281.95763157 -.00000105  00000-0  00000+0 0  4365
2 26812 006.6950 281.5536 7006870 038.1606 049.9737 02.21538670121680
0 ARIANE 44LP DEB
1 26812U 88109P   13285.95336738 -.00000107  00000-0  00000+0 0  4384
2 26812 006.6809 280.2013 7005505 040.7999 356.6801 02.21540673121773
0 ARIANE 44LP DEB
1 26812U 88109P   13288.22428825 -.00000073  00000-0  00000+0 0  4399
2 26812 006.6751 279.4301 7005478 042.2977 007.8125 02.21542831121829
0 ARIANE 44LP DEB
1 26812U 88109P   13291.04559678 -.00000066  00000-0  00000+0 0  4408
2 26812 006.6661 278.4647 7005662 044.1648 097.9157 02.21545614121885
0 ARIANE 44LP DEB
1 26812U 88109P   13292.80645660 -.00000092  00000-0  00000+0 0  4410
2 26812 006.6607 277.8578 7005941 045.3330 062.2753 02.21546853121920
